{
  "type": "FeatureCollection",
  "features": [
    {
      "type": "Feature",
      "properties": {
        "norad_id": 34784,
        "name": "COSMOS 2251 DEB",
        "group": "cosmos-2251-debris",
        "lat": -60.52008362117702,
        "lon": -82.25588659053388,
        "alt_km": 732.1464666905549,
        "timestamp": "2025-12-21T03:56:51.227858+00:00",
        "meta_object_name": "COSMOS 2251 DEB",
        "meta_object_id": "1993-036AAM",
        "meta_epoch": "2025-12-19T22:39:42.145920",
        "meta_mean_motion": 14.60808995,
        "meta_eccentricity": 0.0049222,
        "meta_inclination": 74.0073,
        "meta_ra_of_asc_node": 310.5647,
        "meta_arg_of_pericenter": 117.7322,
        "meta_mean_anomaly": 242.885,
        "meta_ephemeris_type": 0,
        "meta_classification_type": "U",
        "meta_norad_cat_id": 34784,
        "meta_element_set_no": 999,
        "meta_rev_at_epoch": 88640,
        "meta_bstar": 0.00031795,
        "meta_mean_motion_dot": 1.549e-05,
        "meta_mean_motion_ddot": 0,
        "tle_line1": "1 34784U 93036AAM 25353.94423780  .00001549  00000+0  31795-3 0  9998",
        "tle_line2": "2 34784  74.0073 310.5647 0049222 117.7322 242.8850 14.60808995886402"
      },
      "geometry": {
        "type": "Point",
        "coordinates": [
          -82.25588659053388,
          -60.52008362117702
        ]
      }
    },
    {
      "type": "Feature",
      "properties": {
        "norad_id": 34790,
        "name": "COSMOS 2251 DEB",
        "group": "cosmos-2251-debris",
        "lat": 44.569956330862084,
        "lon": -115.10241844160308,
        "alt_km": 839.4189806841669,
        "timestamp": "2025-12-21T03:56:51.227867+00:00",
        "meta_object_name": "COSMOS 2251 DEB",
        "meta_object_id": "1993-036AAT",
        "meta_epoch": "2025-12-20T03:10:44.601024",
        "meta_mean_motion": 14.24656104,
        "meta_eccentricity": 0.01005224,
        "meta_inclination": 74.0538,
        "meta_ra_of_asc_node": 230.3962,
        "meta_arg_of_pericenter": 290.5432,
        "meta_mean_anomaly": 224.5062,
        "meta_ephemeris_type": 0,
        "meta_classification_type": "U",
        "meta_norad_cat_id": 34790,
        "meta_element_set_no": 999,
        "meta_rev_at_epoch": 86678,
        "meta_bstar": 0.00041671452,
        "meta_mean_motion_dot": 9.95e-06,
        "meta_mean_motion_ddot": 0,
        "tle_line1": "1 34790U 93036AAT 25354.13246066  .00000995  00000+0  41671-3 0  9995",
        "tle_line2": "2 34790  74.0538 230.3962 0100522 290.5432 224.5062 14.24656104866781"
      },
      "geometry": {
        "type": "Point",
        "coordinates": [
          -115.10241844160308,
          44.569956330862084
        ]
      }
    },
    {
      "type": "Feature",
      "properties": {
        "norad_id": 34792,
        "name": "COSMOS 2251 DEB",
        "group": "cosmos-2251-debris",
        "lat": -41.80630946911532,
        "lon": -11.429228903680787,
        "alt_km": 704.279945183006,
        "timestamp": "2025-12-21T03:56:51.227877+00:00",
        "meta_object_name": "COSMOS 2251 DEB",
        "meta_object_id": "1993-036AAV",
        "meta_epoch": "2025-12-20T12:20:32.087328",
        "meta_mean_motion": 14.56013291,
        "meta_eccentricity": 0.0012416,
        "meta_inclination": 74.0171,
        "meta_ra_of_asc_node": 154.9529,
        "meta_arg_of_pericenter": 249.388,
        "meta_mean_anomaly": 167.642,
        "meta_ephemeris_type": 0,
        "meta_classification_type": "U",
        "meta_norad_cat_id": 34792,
        "meta_element_set_no": 999,
        "meta_rev_at_epoch": 87763,
        "meta_bstar": 0.00068570227,
        "meta_mean_motion_dot": 2.993e-05,
        "meta_mean_motion_ddot": 0,
        "tle_line1": "1 34792U 93036AAV 25354.51426027  .00002993  00000+0  68570-3 0  9993",
        "tle_line2": "2 34792  74.0171 154.9529 0012416 249.3880 167.6420 14.56013291877639"
      },
      "geometry": {
        "type": "Point",
        "coordinates": [
          -11.429228903680787,
          -41.80630946911532
        ]
      }
    },
    {
      "type": "Feature",
      "properties": {
        "norad_id": 34793,
        "name": "COSMOS 2251 DEB",
        "group": "cosmos-2251-debris",
        "lat": -16.688898969017533,
        "lon": 59.73731658686489,
        "alt_km": 803.1060473623766,
        "timestamp": "2025-12-21T03:56:51.227886+00:00",
        "meta_object_name": "COSMOS 2251 DEB",
        "meta_object_id": "1993-036AAW",
        "meta_epoch": "2025-12-20T11:10:09.093792",
        "meta_mean_motion": 14.38656039,
        "meta_eccentricity": 0.00506275,
        "meta_inclination": 74.0021,
        "meta_ra_of_asc_node": 236.0943,
        "meta_arg_of_pericenter": 28.2181,
        "meta_mean_anomaly": 149.6653,
        "meta_ephemeris_type": 0,
        "meta_classification_type": "U",
        "meta_norad_cat_id": 34793,
        "meta_element_set_no": 999,
        "meta_rev_at_epoch": 87441,
        "meta_bstar": 0.00017385054,
        "meta_mean_motion_dot": 5.14e-06,
        "meta_mean_motion_ddot": 0,
        "tle_line1": "1 34793U 93036AAW 25354.46538303  .00000514  00000+0  17385-3 0  9994",
        "tle_line2": "2 34793  74.0021 236.0943 0050627  28.2181 149.6653 14.38656039874414"
      },
      "geometry": {
        "type": "Point",
        "coordinates": [
          59.73731658686489,
          -16.688898969017533
        ]
      }
    },
    {
      "type": "Feature",
      "properties": {
        "norad_id": 34796,
        "name": "COSMOS 2251 DEB",
        "group": "cosmos-2251-debris",
        "lat": -51.93955415644466,
        "lon": 42.003629656428586,
        "alt_km": 706.6761761012312,
        "timestamp": "2025-12-21T03:56:51.227895+00:00",
        "meta_object_name": "COSMOS 2251 DEB",
        "meta_object_id": "1993-036AAZ",
        "meta_epoch": "2025-12-20T20:18:01.714752",
        "meta_mean_motion": 14.48723877,
        "meta_eccentricity": 0.0100286,
        "meta_inclination": 74.0288,
        "meta_ra_of_asc_node": 201.1462,
        "meta_arg_of_pericenter": 301.4571,
        "meta_mean_anomaly": 73.4002,
        "meta_ephemeris_type": 0,
        "meta_classification_type": "U",
        "meta_norad_cat_id": 34796,
        "meta_element_set_no": 999,
        "meta_rev_at_epoch": 88145,
        "meta_bstar": 0.00035757,
        "meta_mean_motion_dot": 1.406e-05,
        "meta_mean_motion_ddot": 0,
        "tle_line1": "1 34796U 93036AAZ 25354.84585318  .00001406  00000+0  35757-3 0  9991",
        "tle_line2": "2 34796  74.0288 201.1462 0100286 301.4571  73.4002 14.48723877881457"
      },
      "geometry": {
        "type": "Point",
        "coordinates": [
          42.003629656428586,
          -51.93955415644466
        ]
      }
    },
    {
      "type": "Feature",
      "properties": {
        "norad_id": 34797,
        "name": "COSMOS 2251 DEB",
        "group": "cosmos-2251-debris",
        "lat": -2.4701241535050675,
        "lon": -95.0006532180298,
        "alt_km": 702.3409142396513,
        "timestamp": "2025-12-21T03:56:51.227904+00:00",
        "meta_object_name": "COSMOS 2251 DEB",
        "meta_object_id": "1993-036ABA",
        "meta_epoch": "2025-12-18T13:32:08.695392",
        "meta_mean_motion": 14.42903821,
        "meta_eccentricity": 0.00713736,
        "meta_inclination": 73.9783,
        "meta_ra_of_asc_node": 89.1324,
        "meta_arg_of_pericenter": 201.7042,
        "meta_mean_anomaly": 158.1087,
        "meta_ephemeris_type": 0,
        "meta_classification_type": "U",
        "meta_norad_cat_id": 34797,
        "meta_element_set_no": 999,
        "meta_rev_at_epoch": 87499,
        "meta_bstar": 0.0016985088,
        "meta_mean_motion_dot": 5.83e-05,
        "meta_mean_motion_ddot": 0,
        "tle_line1": "1 34797U 93036ABA 25352.56398953  .00005830  00000+0  16985-2 0  9992",
        "tle_line2": "2 34797  73.9783  89.1324 0071373 201.7042 158.1087 14.42903821874994"
      },
      "geometry": {
        "type": "Point",
        "coordinates": [
          -95.0006532180298,
          -2.4701241535050675
        ]
      }
    },
    {
      "type": "Feature",
      "properties": {
        "norad_id": 34814,
        "name": "COSMOS 2251 DEB",
        "group": "cosmos-2251-debris",
        "lat": -14.052889955572466,
        "lon": -54.33394696242715,
        "alt_km": 806.5226296756782,
        "timestamp": "2025-12-21T03:56:51.227913+00:00",
        "meta_object_name": "COSMOS 2251 DEB",
        "meta_object_id": "1993-036ABD",
        "meta_epoch": "2025-12-20T15:30:26.921088",
        "meta_mean_motion": 14.36924529,
        "meta_eccentricity": 0.0055669,
        "meta_inclination": 73.8958,
        "meta_ra_of_asc_node": 310.7738,
        "meta_arg_of_pericenter": 198.7366,
        "meta_mean_anomaly": 346.1434,
        "meta_ephemeris_type": 0,
        "meta_classification_type": "U",
        "meta_norad_cat_id": 34814,
        "meta_element_set_no": 999,
        "meta_rev_at_epoch": 87446,
        "meta_bstar": 0.00047694,
        "meta_mean_motion_dot": 1.41e-05,
        "meta_mean_motion_ddot": 0,
        "tle_line1": "1 34814U 93036ABD 25354.64614492  .00001410  00000+0  47694-3 0  9994",
        "tle_line2": "2 34814  73.8958 310.7738 0055669 198.7366 346.1434 14.36924529874461"
      },
      "geometry": {
        "type": "Point",
        "coordinates": [
          -54.33394696242715,
          -14.052889955572466
        ]
      }
    }
  ]
}